EOS-4                   
1 51656U 22013A   22072.80765416  .00001322  00000+0  79058-4 0  9991
2 51656  97.5539  81.6358 0013223 149.2043  22.4970 15.12735446  4194
INSPIRESAT-1            
1 51657U 22013B   22072.90192322  .00004312  00000+0  24672-3 0  9996
2 51657  97.5607  81.7761 0012219 154.2097 205.9746 15.13126193  4215
INS-2TD                 
1 51658U 22013C   22072.89849965  .00006433  00000+0  36391-3 0  9994
2 51658  97.5595  81.7750 0011771 156.3581 203.8193 15.13348390  4211
PSLV R/B                
1 51659U 22013D   22072.98696759  .00003377  00000+0  17887-3 0  9999
2 51659  97.5730  82.0535 0031890 239.4326 120.3759 15.15685010  4230
PROGRESS-MS 19          
1 51660U 22014A   22072.38741953  .00009770  00000+0  18279-3 0  9992
2 51660  51.6430  91.0345 0004192 259.3834 235.4789 15.49387472330320
CYGNUS NG-17            
1 51712U 22015A   22072.38741953  .00009770  00000+0  18279-3 0  9991
2 51712  51.6430  91.0345 0004192 259.3834 235.4789 15.49387472330328
STARLINK-3528           
1 51714U 22016A   22072.91668981 -.00067775  00000+0 -48131-3 0  9993
2 51714  53.2175  39.0269 0001348  65.7513  12.9225 15.73251360  3709
STARLINK-3533           
1 51715U 22016B   22072.91668981 -.00072448  00000+0 -51529-3 0  9992
2 51715  53.2176  39.0219 0001331  67.4188  13.1724 15.73242307  3703
STARLINK-3543           
1 51716U 22016C   22072.91668981 -.00067162  00000+0 -47718-3 0  9995
2 51716  53.2180  39.0238 0001196  73.5867   5.7338 15.73237162  3702
STARLINK-3445           
1 51717U 22016D   22072.91668981 -.00001009  00000+0 -27692-5 0  9995
2 51717  53.2176  39.0164 0001335  69.2274  10.4925 15.73205053  3704
STARLINK-3546           
1 51718U 22016E   22072.91668981  .00382198  00000+0  26469-2 0  9993
2 51718  53.2176  39.0133 0000961  53.3411  29.2553 15.72829817  3706
STARLINK-3540           
1 51719U 22016F   22072.91668981 -.00048831  00000+0 -34533-3 0  9991
2 51719  53.2183  39.0239 0001274  72.9352   8.3104 15.73213083  3704
STARLINK-3526           
1 51720U 22016G   22072.91668981 -.00072385  00000+0 -51448-3 0  9998
2 51720  53.2179  39.0164 0001369  76.8748   6.2711 15.73258308  3705
STARLINK-3524           
1 51721U 22016H   22072.91668981  .00775589  00000+0  51420-2 0  9992
2 51721  53.2174  39.0142 0001429  72.7880   9.1278 15.72713067  3703
STARLINK-3535           
1 51722U 22016J   22072.91668981 -.00162782  00000+0 -11731-2 0  9991
2 51722  53.2180  39.0126 0001371  73.5593  11.4521 15.73296360  3709
STARLINK-3531           
1 51723U 22016K   22072.91668981  .00082551  00000+0  51802-3 0  9999
2 51723  53.2209  38.5762 0007468 281.6909  21.1750 15.76049342  3710
STARLINK-3529           
1 51724U 22016L   22072.91668981  .00647701  00000+0  43618-2 0  9999
2 51724  53.2176  39.0061 0001029  79.9004   6.5480 15.72713759  3705
STARLINK-3522           
1 51725U 22016M   22072.91668981  .00067793  00000+0  48591-3 0  9993
2 51725  53.2178  39.0176 0001406  81.4631   2.8562 15.73086030  3704
STARLINK-3527           
1 51726U 22016N   22072.91668981  .00484594  00000+0  33255-2 0  9996
2 51726  53.2177  39.0042 0000869  77.9450   9.8251 15.72744282  3708
STARLINK-3532           
1 51727U 22016P   22072.91668981 -.00256117  00000+0 -18683-2 0  9995
2 51727  53.2178  39.0119 0001294  72.4325  13.2783 15.73301987  3700
STARLINK-3448           
1 51728U 22016Q   22072.91668981 -.00109430  00000+0 -78316-3 0  9991
2 51728  53.2181  39.0056 0001296  80.7765   8.0952 15.73268124  3702
STARLINK-3523           
1 51729U 22016R   22072.91668981  .00013381  00000+0  99709-4 0  9999
2 51729  53.2183  39.0130 0001244  75.0474  11.9505 15.73174437  3705
STARLINK-3530           
1 51730U 22016S   22072.91668981  .00595541  00000+0  40300-2 0  9995
2 51730  53.2176  38.9989 0001016  89.4588   0.7922 15.72751344  3718
STARLINK-3514           
1 51731U 22016T   22072.91668981  .00069220  00000+0  49455-3 0  9997
2 51731  53.2185  39.0109 0001303  83.2456   5.0102 15.73153007  3700
STARLINK-3518           
1 51732U 22016U   22072.91668981 -.00299795  00000+0 -21954-2 0  9995
2 51732  53.2182  39.0017 0001410  82.2988   8.4751 15.73339065  3712
STARLINK-3525           
1 51733U 22016V   22072.91668981  .00158771  00000+0  11288-2 0  9991
2 51733  53.2176  39.0003 0000742  77.1052  12.5433 15.72899425  3716
STARLINK-3450           
1 51734U 22016W   22072.91668981  .00031511  00000+0  22839-3 0  9999
2 51734  53.2189  39.0030 0001132  76.5464  16.1650 15.73169186  3711
STARLINK-3517           
1 51735U 22016X   22072.91668981  .00109528  00000+0  78299-3 0  9995
2 51735  53.2177  38.9968 0001115  97.7477 353.7710 15.72949763  3710
STARLINK-3447           
1 51736U 22016Y   22072.91668981  .00621887  00000+0  41981-2 0  9990
2 51736  53.2177  38.9914 0001098  81.2087  12.8859 15.72732101  3710
STARLINK-3509           
1 51737U 22016Z   22072.91668981 -.00010005  00000+0 -66838-4 0  9997
2 51737  53.2180  38.9992 0001273  90.8515   1.1956 15.73240186  3715
STARLINK-3515           
1 51738U 22016AA  22072.91668981  .00658281  00000+0  44288-2 0  9993
2 51738  53.2175  38.9888 0001032  88.3701   7.0204 15.72705612  3716
STARLINK-3516           
1 51739U 22016AB  22072.91668981 -.00025028  00000+0 -17447-3 0  9991
2 51739  53.2186  39.0011 0001052  75.8830  17.4787 15.73196328  3715
STARLINK-3500           
1 51740U 22016AC  22072.91668981  .00708679  00000+0  47441-2 0  9997
2 51740  53.2177  38.9849 0001142  88.7208   8.5992 15.72677467  3712
STARLINK-3520           
1 51741U 22016AD  22072.91668981 -.00044426  00000+0 -31378-3 0  9996
2 51741  53.2186  38.9985 0001432  86.6564   8.0090 15.73200270  3717
STARLINK-3521           
1 51742U 22016AE  22072.91668981 -.00340959  00000+0 -25078-2 0  9996
2 51742  53.2182  38.9879 0001292  80.9266  16.8771 15.73355953  3718
STARLINK-3512           
1 51743U 22016AF  22072.91668981  .00019827  00000+0  14542-3 0  9997
2 51743  53.2185  38.9961 0001320  94.6162   1.3057 15.73189087  3712
STARLINK-3452           
1 51744U 22016AG  22072.91668981  .00012763  00000+0  95285-4 0  9994
2 51744  53.2189  38.9909 0001116 101.6092 357.4859 15.73182435  3718
STARLINK-3449           
1 51745U 22016AH  22072.91668981  .00014408  00000+0  10687-3 0  9995
2 51745  53.2181  38.9907 0001409  83.9471  12.6229 15.73205651  3714
STARLINK-3502           
1 51746U 22016AJ  22072.91668981  .00000306  00000+0  65992-5 0  9999
2 51746  53.2189  38.9885 0001105  65.0057  35.3528 15.73188583  3710
STARLINK-3446           
1 51747U 22016AK  22072.91668981  .00000028  00000+0  46173-5 0  9991
2 51747  53.2187  38.9915 0001059  92.8586   5.5935 15.73183392  3710
STARLINK-3501           
1 51748U 22016AL  22072.91668981 -.00273379  00000+0 -19966-2 0  9992
2 51748  53.2183  38.9804 0001555  72.9450  28.6919 15.73323917  3711
STARLINK-3451           
1 51749U 22016AM  22072.91668981  .00067819  00000+0  48525-3 0  9995
2 51749  53.2186  38.9890 0001266  64.5820  35.0497 15.73126925  3710
STARLINK-3505           
1 51750U 22016AN  22072.91668981  .00616463  00000+0  41639-2 0  9990
2 51750  53.2177  38.9737 0000969  89.8852  13.1454 15.72733728  3710
STARLINK-3506           
1 51751U 22016AP  22072.91668981  .00022396  00000+0  16371-3 0  9993
2 51751  53.2187  38.9864 0001325  78.5184  22.4552 15.73178833  3716
STARLINK-3511           
1 51752U 22016AQ  22072.91668981  .00068790  00000+0  49150-3 0  9993
2 51752  53.2192  38.9829 0001213  74.7756  28.7937 15.73154336  3711
STARLINK-3507           
1 51753U 22016AR  22072.91668981 -.00029283  00000+0 -20501-3 0  9999
2 51753  53.2188  38.9841 0001327  72.5231  29.7859 15.73193081  3715
STARLINK-3457           
1 51754U 22016AS  22072.91668981  .00161362  00000+0  11466-2 0  9992
2 51754  53.2179  38.9704 0001014  71.7532  33.2058 15.72903359  3719
STARLINK-3460           
1 51755U 22016AT  22072.91668981 -.00022674  00000+0 -15740-3 0  9997
2 51755  53.2182  38.9755 0001302  91.0583  13.1743 15.73225042  3716
STARLINK-3513           
1 51756U 22016AU  22072.91668981 -.00085612  00000+0 -61019-3 0  9999
2 51756  53.2185  38.9741 0001334  74.4935  30.9953 15.73261026  3718
STARLINK-3459           
1 51757U 22016AV  22072.91668981 -.00022383  00000+0 -15530-3 0  9993
2 51757  53.2182  38.9720 0001367  80.4546  25.6815 15.73227011  3718
STARLINK-3458           
1 51758U 22016AW  22072.91668981 -.00009771  00000+0 -65247-4 0  9991
2 51758  53.2184  38.9713 0001444  67.1280  39.6550 15.73211964  3717
STARLINK-3456           
1 51759U 22016AX  22072.91668981 -.00077940  00000+0 -55460-3 0  9990
2 51759  53.2181  38.9692 0001134  70.0432  37.3485 15.73261760  3710
FALCON 9 DEB            
1 51760U 22016AY  22072.87951934  .00197810  00000+0  85682-3 0  9996
2 51760  53.2304  38.2399 0005436 332.1831  27.8902 15.83802088  3364
FALCON 9 DEB            
1 51761U 22016AZ  22072.87324885  .00216398  00000+0  90170-3 0  9997
2 51761  53.2279  38.1929 0004363 300.0709  59.9883 15.84572254  3364
FALCON 9 DEB            
1 51762U 22016BA  22072.86011782  .00195424  00000+0  77743-3 0  9993
2 51762  53.2251  38.0965 0008845 309.1085  50.9153 15.85552561  3361
FALCON 9 DEB            
1 51763U 22016BB  22072.28986214  .00147032  00000+0  59093-3 0  9991
2 51763  53.2233  40.9302 0008570 288.0930  71.9162 15.85482777  3272
STARLINK-3622           
1 51768U 22017A   22072.91668981  .00604254  00000+0  40694-2 0  9995
2 51768  53.2174  63.0691 0001999  54.5294 333.5088 15.72841866  3071
STARLINK-3621           
1 51769U 22017B   22072.91668981  .00088861  00000+0  63220-3 0  9997
2 51769  53.2200  63.0742 0001452  60.2684 329.0145 15.73150847  3066
STARLINK-3612           
1 51770U 22017C   22072.91668981  .00522180  00000+0  35453-2 0  9992
2 51770  53.2174  63.0679 0001647  60.1242 328.5288 15.72888493  3068
